{
  "links" : {
    "next" : "https://api.nasa.gov/neo/rest/v1/feed?start_date=2010-10-23&end_date=2010-10-23&detailed=true&api_key=t0TVs3DtDT2H8Oy2Zy8m2eVrNsAVKAexjcZXUckd",
    "prev" : "https://api.nasa.gov/neo/rest/v1/feed?start_date=2010-10-21&end_date=2010-10-21&detailed=true&api_key=t0TVs3DtDT2H8Oy2Zy8m2eVrNsAVKAexjcZXUckd",
    "self" : "https://api.nasa.gov/neo/rest/v1/feed?start_date=2010-10-22&end_date=2010-10-22&detailed=true&api_key=t0TVs3DtDT2H8Oy2Zy8m2eVrNsAVKAexjcZXUckd"
  },
  "element_count" : 7,
  "near_earth_objects" : {
    "2010-10-22" : [ {
      "links" : {
        "self" : "https://api.nasa.gov/neo/rest/v1/neo/3771610?api_key=t0TVs3DtDT2H8Oy2Zy8m2eVrNsAVKAexjcZXUckd"
      },
      "neo_reference_id" : "3771610",
      "name" : "(2017 FB1)",
      "nasa_jpl_url" : "http://ssd.jpl.nasa.gov/sbdb.cgi?sstr=3771610",
      "absolute_magnitude_h" : 23.387,
      "estimated_diameter" : {
        "kilometers" : {
          "estimated_diameter_min" : 0.0558669519,
          "estimated_diameter_max" : 0.1249223021
        },
        "meters" : {
          "estimated_diameter_min" : 55.8669518614,
          "estimated_diameter_max" : 124.9223020579
        },
        "miles" : {
          "estimated_diameter_min" : 0.0347141037,
          "estimated_diameter_max" : 0.0776230958
        },
        "feet" : {
          "estimated_diameter_min" : 183.290530345,
          "estimated_diameter_max" : 409.8500854835
        }
      },
      "is_potentially_hazardous_asteroid" : false,
      "close_approach_data" : [ {
        "close_approach_date" : "2010-10-22",
        "epoch_date_close_approach" : 1287730800000,
        "relative_velocity" : {
          "kilometers_per_second" : "18.2661627226",
          "kilometers_per_hour" : "65758.185801221",
          "miles_per_hour" : "40859.5793940976"
        },
        "miss_distance" : {
          "astronomical" : "0.3758226706",
          "lunar" : "146.195022583",
          "kilometers" : "56222272",
          "miles" : "34934900"
        },
        "orbiting_body" : "Earth"
      } ],
      "orbital_data" : {
        "orbit_id" : "13",
        "orbit_determination_date" : "2017-07-31 08:26:00",
        "orbit_uncertainty" : "6",
        "minimum_orbit_intersection" : ".0135445",
        "jupiter_tisserand_invariant" : "3.307",
        "epoch_osculation" : "2458000.5",
        "eccentricity" : ".7381179967863692",
        "semi_major_axis" : "2.125240032804556",
        "inclination" : "5.126159613051862",
        "ascending_node_longitude" : "349.9708122349513",
        "orbital_period" : "1131.64552125689",
        "perihelion_distance" : ".5565621171006594",
        "perihelion_argument" : "79.40359993064372",
        "aphelion_distance" : "3.693917948508453",
        "perihelion_time" : "2457770.503034889760",
        "mean_anomaly" : "73.16682290026979",
        "mean_motion" : ".3181208189647206",
        "equinox" : "J2000"
      }
    } ]
  }
}